IRIDIUM 132             
1 42961U 17061G   26085.96475379  .00000041  00000+0  77335-5 0  9992
2 42961  86.3938  59.6130 0002182  90.3072 269.8374 14.34217690443039
IRIDIUM 136             
1 42962U 17061H   26085.92669821  .00000181  00000+0  57638-4 0  9994
2 42962  86.3941  59.6354 0002096  87.4634 272.6801 14.34217970443046
IRIDIUM 139             
1 42963U 17061J   26085.93304090  .00000210  00000+0  67792-4 0  9995
2 42963  86.3939  59.6932 0002249  90.0847 270.0606 14.34217735443057
IRIDIUM 125             
1 42964U 17061K   26085.92035431  .00000113  00000+0  33378-4 0  9990
2 42964  86.3943  59.7583 0001631  88.9005 271.2378 14.34217484443063
IRIDIUM 135             
1 43070U 17083A   26085.47587126  .00000122  00000+0  36356-4 0  9995
2 43070  86.4026 356.5871 0002212  85.8782 274.2667 14.34217236432299
IRIDIUM 138             
1 43071U 17083B   26085.50124138  .00000202  00000+0  65157-4 0  9990
2 43071  86.4037 356.2594 0001940  76.9845 283.1568 14.34217214432283
IRIDIUM 116             
1 43072U 17083C   26085.67882469  .00000283  00000+0  94028-4 0  9995
2 43072  86.4024 356.4893 0002388  89.8774 270.2696 14.34214408432343
IRIDIUM 130             
1 43073U 17083D   26085.71688881  .00000317  00000+0  10602-3 0  9996
2 43073  86.4033 356.7404 0002185  92.0434 268.1012 14.34218284432297
IRIDIUM 151             
1 43074U 17083E   26085.69151878  .00000186  00000+0  59257-4 0  9999
2 43074  86.4027 356.5399 0002230  85.5122 274.6328 14.34217903432316
IRIDIUM 134             
1 43075U 17083F   26085.86911243  .00000198  00000+0  63681-4 0  9998
2 43075  86.4028 356.4727 0002145  88.5180 271.6261 14.34216559432302
IRIDIUM 137             
1 43076U 17083G   26085.74226216  .00000297  00000+0  99119-4 0  9990
2 43076  86.4028 356.6167 0002675  85.8830 274.2672 14.34214742432355
IRIDIUM 141             
1 43077U 17083H   26085.73590681  .00000261  00000+0  86255-4 0  9998
2 43077  86.4024 356.4547 0002084  83.0156 277.1276 14.34221570432356
IRIDIUM 153             
1 43078U 17083J   26085.61832656  .00000174  00000+0  55150-4 0  9990
2 43078  86.3983 325.0124 0001880  83.5002 276.6407 14.34217525433447
