[
    {
      "OBJECT_NAME": "IRIDIUM 132",
      "OBJECT_ID": "2017-061G",
      "EPOCH": "2026-03-26T23:09:14.727456",
      "MEAN_MOTION": 14.3421769,
      "ECCENTRICITY": 0.00021829,
      "INCLINATION": 86.3938,
      "RA_OF_ASC_NODE": 59.613,
      "ARG_OF_PERICENTER": 90.3072,
      "MEAN_ANOMALY": 269.8374,
      "EPHEMERIS_TYPE": 0,
      "CLASSIFICATION_TYPE": "U",
      "NORAD_CAT_ID": 42961,
      "ELEMENT_SET_NO": 999,
      "REV_AT_EPOCH": 44303,
      "BSTAR": 0.000007733466,
      "MEAN_MOTION_DOT": 4.1e-7,
      "MEAN_MOTION_DDOT": 0
    },
    {
      "OBJECT_NAME": "IRIDIUM 136",
      "OBJECT_ID": "2017-061H",
      "EPOCH": "2026-03-26T22:14:26.725344",
      "MEAN_MOTION": 14.3421797,
      "ECCENTRICITY": 0.00020968,
      "INCLINATION": 86.3941,
      "RA_OF_ASC_NODE": 59.6354,
      "ARG_OF_PERICENTER": 87.4634,
      "MEAN_ANOMALY": 272.6801,
      "EPHEMERIS_TYPE": 0,
      "CLASSIFICATION_TYPE": "U",
      "NORAD_CAT_ID": 42962,
      "ELEMENT_SET_NO": 999,
      "REV_AT_EPOCH": 44304,
      "BSTAR": 0.000057637995,
      "MEAN_MOTION_DOT": 0.00000181,
      "MEAN_MOTION_DDOT": 0
    },
    {
      "OBJECT_NAME": "IRIDIUM 139",
      "OBJECT_ID": "2017-061J",
      "EPOCH": "2026-03-26T22:23:34.733760",
      "MEAN_MOTION": 14.34217735,
      "ECCENTRICITY": 0.00022496,
      "INCLINATION": 86.3939,
      "RA_OF_ASC_NODE": 59.6932,
      "ARG_OF_PERICENTER": 90.0847,
      "MEAN_ANOMALY": 270.0606,
      "EPHEMERIS_TYPE": 0,
      "CLASSIFICATION_TYPE": "U",
      "NORAD_CAT_ID": 42963,
      "ELEMENT_SET_NO": 999,
      "REV_AT_EPOCH": 44305,
      "BSTAR": 0.000067791757,
      "MEAN_MOTION_DOT": 0.0000021,
      "MEAN_MOTION_DDOT": 0
    },
    {
      "OBJECT_NAME": "IRIDIUM 125",
      "OBJECT_ID": "2017-061K",
      "EPOCH": "2026-03-26T22:05:18.612384",
      "MEAN_MOTION": 14.34217484,
      "ECCENTRICITY": 0.00016315,
      "INCLINATION": 86.3943,
      "RA_OF_ASC_NODE": 59.7583,
      "ARG_OF_PERICENTER": 88.9005,
      "MEAN_ANOMALY": 271.2378,
      "EPHEMERIS_TYPE": 0,
      "CLASSIFICATION_TYPE": "U",
      "NORAD_CAT_ID": 42964,
      "ELEMENT_SET_NO": 999,
      "REV_AT_EPOCH": 44306,
      "BSTAR": 0.000033377764,
      "MEAN_MOTION_DOT": 0.00000113,
      "MEAN_MOTION_DDOT": 0
    },
    {
      "OBJECT_NAME": "IRIDIUM 135",
      "OBJECT_ID": "2017-083A",
      "EPOCH": "2026-03-26T11:25:15.276864",
      "MEAN_MOTION": 14.34217236,
      "ECCENTRICITY": 0.00022125,
      "INCLINATION": 86.4026,
      "RA_OF_ASC_NODE": 356.5871,
      "ARG_OF_PERICENTER": 85.8782,
      "MEAN_ANOMALY": 274.2667,
      "EPHEMERIS_TYPE": 0,
      "CLASSIFICATION_TYPE": "U",
      "NORAD_CAT_ID": 43070,
      "ELEMENT_SET_NO": 999,
      "REV_AT_EPOCH": 43229,
      "BSTAR": 0.000036355843,
      "MEAN_MOTION_DOT": 0.00000122,
      "MEAN_MOTION_DDOT": 0
    },
    {
      "OBJECT_NAME": "IRIDIUM 138",
      "OBJECT_ID": "2017-083B",
      "EPOCH": "2026-03-26T12:01:47.255232",
      "MEAN_MOTION": 14.34217214,
      "ECCENTRICITY": 0.00019403,
      "INCLINATION": 86.4037,
      "RA_OF_ASC_NODE": 356.2594,
      "ARG_OF_PERICENTER": 76.9845,
      "MEAN_ANOMALY": 283.1568,
      "EPHEMERIS_TYPE": 0,
      "CLASSIFICATION_TYPE": "U",
      "NORAD_CAT_ID": 43071,
      "ELEMENT_SET_NO": 999,
      "REV_AT_EPOCH": 43228,
      "BSTAR": 0.000065157407,
      "MEAN_MOTION_DOT": 0.00000202,
      "MEAN_MOTION_DDOT": 0
    },
    {
      "OBJECT_NAME": "IRIDIUM 116",
      "OBJECT_ID": "2017-083C",
      "EPOCH": "2026-03-26T16:17:30.453216",
      "MEAN_MOTION": 14.34214408,
      "ECCENTRICITY": 0.00023889,
      "INCLINATION": 86.4024,
      "RA_OF_ASC_NODE": 356.4893,
      "ARG_OF_PERICENTER": 89.8774,
      "MEAN_ANOMALY": 270.2696,
      "EPHEMERIS_TYPE": 0,
      "CLASSIFICATION_TYPE": "U",
      "NORAD_CAT_ID": 43072,
      "ELEMENT_SET_NO": 999,
      "REV_AT_EPOCH": 43234,
      "BSTAR": 0.000094028499,
      "MEAN_MOTION_DOT": 0.00000283,
      "MEAN_MOTION_DDOT": 0
    },
    {
      "OBJECT_NAME": "IRIDIUM 130",
      "OBJECT_ID": "2017-083D",
      "EPOCH": "2026-03-26T17:12:19.193184",
      "MEAN_MOTION": 14.34218284,
      "ECCENTRICITY": 0.00021859,
      "INCLINATION": 86.4033,
      "RA_OF_ASC_NODE": 356.7404,
      "ARG_OF_PERICENTER": 92.0434,
      "MEAN_ANOMALY": 268.1012,
      "EPHEMERIS_TYPE": 0,
      "CLASSIFICATION_TYPE": "U",
      "NORAD_CAT_ID": 43073,
      "ELEMENT_SET_NO": 999,
      "REV_AT_EPOCH": 43229,
      "BSTAR": 0.00010602448,
      "MEAN_MOTION_DOT": 0.00000317,
      "MEAN_MOTION_DDOT": 0
    },
    {
      "OBJECT_NAME": "IRIDIUM 151",
      "OBJECT_ID": "2017-083E",
      "EPOCH": "2026-03-26T16:35:47.222592",
      "MEAN_MOTION": 14.34217903,
      "ECCENTRICITY": 0.00022303,
      "INCLINATION": 86.4027,
      "RA_OF_ASC_NODE": 356.5399,
      "ARG_OF_PERICENTER": 85.5122,
      "MEAN_ANOMALY": 274.6328,
      "EPHEMERIS_TYPE": 0,
      "CLASSIFICATION_TYPE": "U",
      "NORAD_CAT_ID": 43074,
      "ELEMENT_SET_NO": 999,
      "REV_AT_EPOCH": 43231,
      "BSTAR": 0.000059257395,
      "MEAN_MOTION_DOT": 0.00000186,
      "MEAN_MOTION_DDOT": 0
    },
    {
      "OBJECT_NAME": "IRIDIUM 134",
      "OBJECT_ID": "2017-083F",
      "EPOCH": "2026-03-26T20:51:31.313952",
      "MEAN_MOTION": 14.34216559,
      "ECCENTRICITY": 0.00021454,
      "INCLINATION": 86.4028,
      "RA_OF_ASC_NODE": 356.4727,
      "ARG_OF_PERICENTER": 88.518,
      "MEAN_ANOMALY": 271.6261,
      "EPHEMERIS_TYPE": 0,
      "CLASSIFICATION_TYPE": "U",
      "NORAD_CAT_ID": 43075,
      "ELEMENT_SET_NO": 999,
      "REV_AT_EPOCH": 43230,
      "BSTAR": 0.000063680964,
      "MEAN_MOTION_DOT": 0.00000198,
      "MEAN_MOTION_DDOT": 0
    },
    {
      "OBJECT_NAME": "IRIDIUM 137",
      "OBJECT_ID": "2017-083G",
      "EPOCH": "2026-03-26T17:48:51.450624",
      "MEAN_MOTION": 14.34214742,
      "ECCENTRICITY": 0.0002675,
      "INCLINATION": 86.4028,
      "RA_OF_ASC_NODE": 356.6167,
      "ARG_OF_PERICENTER": 85.883,
      "MEAN_ANOMALY": 274.2672,
      "EPHEMERIS_TYPE": 0,
      "CLASSIFICATION_TYPE": "U",
      "NORAD_CAT_ID": 43076,
      "ELEMENT_SET_NO": 999,
      "REV_AT_EPOCH": 43235,
      "BSTAR": 0.000099119028,
      "MEAN_MOTION_DOT": 0.00000297,
      "MEAN_MOTION_DDOT": 0
    },
    {
      "OBJECT_NAME": "IRIDIUM 141",
      "OBJECT_ID": "2017-083H",
      "EPOCH": "2026-03-26T17:39:42.348384",
      "MEAN_MOTION": 14.3422157,
      "ECCENTRICITY": 0.0002084,
      "INCLINATION": 86.4024,
      "RA_OF_ASC_NODE": 356.4547,
      "ARG_OF_PERICENTER": 83.0156,
      "MEAN_ANOMALY": 277.1276,
      "EPHEMERIS_TYPE": 0,
      "CLASSIFICATION_TYPE": "U",
      "NORAD_CAT_ID": 43077,
      "ELEMENT_SET_NO": 999,
      "REV_AT_EPOCH": 43235,
      "BSTAR": 0.000086255457,
      "MEAN_MOTION_DOT": 0.00000261,
      "MEAN_MOTION_DDOT": 0
    },
    {
      "OBJECT_NAME": "IRIDIUM 153",
      "OBJECT_ID": "2017-083J",
      "EPOCH": "2026-03-26T14:50:23.414784",
      "MEAN_MOTION": 14.34217525,
      "ECCENTRICITY": 0.00018804,
      "INCLINATION": 86.3983,
      "RA_OF_ASC_NODE": 325.0124,
      "ARG_OF_PERICENTER": 83.5002,
      "MEAN_ANOMALY": 276.6407,
      "EPHEMERIS_TYPE": 0,
      "CLASSIFICATION_TYPE": "U",
      "NORAD_CAT_ID": 43078,
      "ELEMENT_SET_NO": 999,
      "REV_AT_EPOCH": 43344,
      "BSTAR": 0.000055150467,
      "MEAN_MOTION_DOT": 0.00000174,
      "MEAN_MOTION_DDOT": 0
    }
  ]